{
  "type": "FeatureCollection",
  "features": [
    {
      "type": "Feature",
      "properties": {
        "norad_id": 54741,
        "name": "GALAXY 35 (G-35)",
        "group": "intelsat",
        "lat": -0.01954587212347568,
        "lon": -134.0808643590513,
        "alt_km": 35778.01946758431,
        "timestamp": "2025-12-11T15:53:39.210373+00:00",
        "meta_object_name": "GALAXY 35 (G-35)",
        "meta_object_id": "2022-170A",
        "meta_epoch": "2025-12-11T04:30:29.013120",
        "meta_mean_motion": 1.00271246,
        "meta_eccentricity": 0.00025409,
        "meta_inclination": 0.0164,
        "meta_ra_of_asc_node": 263.7762,
        "meta_arg_of_pericenter": 2.1767,
        "meta_mean_anomaly": 148.7302,
        "meta_ephemeris_type": 0,
        "meta_classification_type": "U",
        "meta_norad_cat_id": 54741,
        "meta_element_set_no": 999,
        "meta_rev_at_epoch": 1100,
        "meta_bstar": 0,
        "meta_mean_motion_dot": -1.56e-06,
        "meta_mean_motion_ddot": 0,
        "tle_line1": "1 54741U 22170A   25345.18783580 -.00000156  00000+0  00000+0 0  9993",
        "tle_line2": "2 54741   0.0164 263.7762 0002540   2.1767 148.7302  1.00271246 11001"
      },
      "geometry": {
        "type": "Point",
        "coordinates": [
          -134.0808643590513,
          -0.01954587212347568
        ]
      }
    },
    {
      "type": "Feature",
      "properties": {
        "norad_id": 54742,
        "name": "GALAXY 36 (G-36)",
        "group": "intelsat",
        "lat": -0.00902930088143346,
        "lon": -129.974026015311,
        "alt_km": 35785.03005679456,
        "timestamp": "2025-12-11T15:53:39.210384+00:00",
        "meta_object_name": "GALAXY 36 (G-36)",
        "meta_object_id": "2022-170B",
        "meta_epoch": "2025-12-11T04:31:36.405984",
        "meta_mean_motion": 1.00272439,
        "meta_eccentricity": 3.881e-05,
        "meta_inclination": 0.0154,
        "meta_ra_of_asc_node": 63.9855,
        "meta_arg_of_pericenter": 222.9894,
        "meta_mean_anomaly": 132.0795,
        "meta_ephemeris_type": 0,
        "meta_classification_type": "U",
        "meta_norad_cat_id": 54742,
        "meta_element_set_no": 999,
        "meta_rev_at_epoch": 1088,
        "meta_bstar": 0,
        "meta_mean_motion_dot": -1.79e-06,
        "meta_mean_motion_ddot": 0,
        "tle_line1": "1 54742U 22170B   25345.18861581 -.00000179  00000+0  00000+0 0  9997",
        "tle_line2": "2 54742   0.0154  63.9855 0000388 222.9894 132.0795  1.00272439 10887"
      },
      "geometry": {
        "type": "Point",
        "coordinates": [
          -129.974026015311,
          -0.00902930088143346
        ]
      }
    },
    {
      "type": "Feature",
      "properties": {
        "norad_id": 57493,
        "name": "GALAXY 37 (G-37)",
        "group": "intelsat",
        "lat": -0.004727136515550284,
        "lon": -167.9885444264345,
        "alt_km": 35783.18172218817,
        "timestamp": "2025-12-11T15:53:39.210396+00:00",
        "meta_object_name": "GALAXY 37 (G-37)",
        "meta_object_id": "2023-112A",
        "meta_epoch": "2025-12-10T23:12:35.517600",
        "meta_mean_motion": 1.00272279,
        "meta_eccentricity": 0.00022677,
        "meta_inclination": 0.0079,
        "meta_ra_of_asc_node": 18.4049,
        "meta_arg_of_pericenter": 247.2478,
        "meta_mean_anomaly": 35.4359,
        "meta_ephemeris_type": 0,
        "meta_classification_type": "U",
        "meta_norad_cat_id": 57493,
        "meta_element_set_no": 999,
        "meta_rev_at_epoch": 865,
        "meta_bstar": 0,
        "meta_mean_motion_dot": 5.3e-07,
        "meta_mean_motion_ddot": 0,
        "tle_line1": "1 57493U 23112A   25344.96707775  .00000053  00000+0  00000+0 0  9999",
        "tle_line2": "2 57493   0.0079  18.4049 0002267 247.2478  35.4359  1.00272279  8651"
      },
      "geometry": {
        "type": "Point",
        "coordinates": [
          -167.9885444264345,
          -0.004727136515550284
        ]
      }
    }
  ]
}